STARLINK-2022           
1 47643U 21012Z   24179.54150754 -.00001103  00000+0 -55142-4 0  9991
2 47643  53.0570 315.5684 0001609 103.5898 256.5271 15.06397191186272
